INTELSAT 11 (IS-11) [PM]
1 32253C 07044B   22146.78251157 -.00000178  00000-0  00000-0 0  1462
2 32253   0.0082 304.6587 0001514 125.9814  52.3960  1.00272139    12
HORIZONS-2              
1 32388C 07063B   22143.00000000 -.00000075  00000-0  00000-0 0  1436
2 32388   0.0128  19.6691 0003030  45.3159 260.4558  1.00270577    12
HORIZONS-2              
1 32388C 07063B   22146.00000000 -.00003299  00000-0  00000-0 0  1463
2 32388   0.0285  58.2212 0002809   4.5027 265.6750  1.00272041    17
HORIZONS-2          [PM]
1 32388C 07063B   22147.36660880 -.00000093  00000-0  00000-0 0  1471
2 32388   0.0163 313.0667 0002820 105.8052  42.8535  1.00272151    12
GALAXY 18 (G-18)        
1 32951C 08024A   22143.00000000 -.00003446  00000-0  00000-0 0  1435
2 32951   0.0359 114.5254 0003289 318.9629  44.1008  1.00270105    15
GALAXY 18 (G-18)    [PM]
1 32951C 08024A   22145.93472222 -.00003968  00000-0  00000-0 0  1459
2 32951   0.0017 303.0670 0002976 132.4685  21.4406  1.00272703    12
GALAXY 18 (G-18)        
1 32951C 08024A   22146.00000000 -.00004219  00000-0  00000-0 0  1460
2 32951   0.0016 304.6489 0002976 130.7479  45.1437  1.00272740    16
GALAXY 18 (G-18)    [PM]
1 32951C 08024A   22147.50987269  .00000087  00000-0  00000-0 0  1476
2 32951   0.0007 326.5687 0002996 110.2066 228.8153  1.00273705    13
INTELSAT 25 (IS-25)     
1 33153C 08034A   22143.00000000 -.00000134  00000-0  00000-0 0  1432
2 33153   0.0115 227.6944 0003054 203.6430 137.7522  1.00270872    13
INTELSAT 25 (IS-25)     
1 33153C 08034A   22146.00000000 -.00000134  00000-0  00000-0 0  1468
2 33153   0.0131 261.4207 0002829 169.6281 140.9961  1.00272512    19
INTELSAT 25 (IS-25) [PM]
1 33153C 08034A   22146.69818287 -.00000129  00000-0  00000-0 0  1461
2 33153   0.0113 265.4461 0002746 165.7823  32.8530  1.00272440    13
GALAXY 19 (G-19)        
1 33376C 08045A   22143.00000000 -.00000046  00000-0  00000-0 0  1433
2 33376   0.0383 112.2266 0003039 310.5852  80.7812  1.00270681    19
GALAXY 19 (G-19)        
1 33376C 08045A   22146.00000000 -.00000046  00000-0  00000-0 0  1469
2 33376   0.0452 112.3376 0002815 310.4989  83.7151  1.00271894    16
GALAXY 19 (G-19)    [PM]
1 33376C 08045A   22149.85181713 -.00004495  00000-0  00000-0 0  1491
2 33376   0.0063  11.4406 0002854  56.7951  28.7728  1.00269895    16
INTELSAT 14 (IS-14)     
1 36097C 09064A   22143.00000000 -.00000201  00000-0  00000-0 0  1431
2 36097   0.0005  29.5019 0002097  37.2079 128.8794  1.00266128    10
INTELSAT 14 (IS-14)     
1 36097C 09064A   22146.00000000 -.00000183  00000-0  00000-0 0  1466
2 36097   0.0101 292.3663 0002450 135.8545 130.3430  1.00271681    13
INTELSAT 14 (IS-14) [PM]
1 36097C 09064A   22152.83380787 -.00003838  00000-0  00000-0 0  1524
2 36097   0.0058  20.6447 0002251  49.5070  75.2985  1.00273384    13
INTELSAT 15 (IS-15)     
1 36106C 09067A   22143.00000000 -.00000093  00000-0  00000-0 0  1434
2 36106   0.0083 339.8183 0002374  88.2954 257.6262  1.00270791    14
INTELSAT 15 (IS-15)     
1 36106C 09067A   22146.00000000 -.00000102  00000-0  00000-0 0  1461
2 36106   0.0141   4.5739 0002139  60.9145 263.2021  1.00272117    10
INTELSAT 15 (IS-15) [PM]
1 36106C 09067A   22152.36096065 -.00000095  00000-0  00000-0 0  1521
2 36106   0.0151 326.0212 0001991 101.7898  37.0990  1.00272187    12
INTELSAT 16 (IS-16)     
1 36397C 10006A   22143.00000000 -.00000155  00000-0  00000-0 0  1430
2 36397   0.0057 336.6968 0002145 109.0293  78.6717  1.00270266    10
INTELSAT 16 (IS-16)     
1 36397C 10006A   22146.00000000 -.00000157  00000-0  00000-0 0  1468
2 36397   0.0129   6.8822 0001790  65.2528  95.2051  1.00277539    10
INTELSAT 16 (IS-16) [PM]
1 36397C 10006A   22146.48935185 -.00000157  00000-0  00000-0 0  1461
2 36397   0.0120   4.1944 0001822  52.4854 287.3201  1.00271860    15
INTELSAT 17 (IS-17)     
1 37238C 10065B   22143.00000000 -.00003198  00000-0  00000-0 0  1430
2 37238   0.0245 210.9827 0002925 218.0750 237.5198  1.00273609    10
INTELSAT 17 (IS-17) [PM]
1 37238C 10065B   22145.98947917  .00000046  00000-0  00000-0 0  1456
2 37238   0.0232 202.2624 0002490 223.5100 239.9762  1.00270685    16
INTELSAT 17 (IS-17)     
1 37238C 10065B   22146.00000000 -.00003428  00000-0  00000-0 0  1462
2 37238   0.0231 202.8405 0002482 222.9734 243.7326  1.00270685    14
INTELSAT NEW DAWN       
1 37392C 11016A   22143.00000000  .00000243  00000-0  00000-0 0  1435
2 37392   0.0255 162.9202 0001314 261.9734 208.4858  1.00262820    18
INTELSAT NEW DAWN       
1 37392C 11016A   22146.00000000  .00000246  00000-0  00000-0 0  1464
2 37392   0.0275 261.9415 0000411 163.7740 210.6186  1.00273384    15
INTELSAT NEW DAWN   [PM]
1 37392C 11016A   22149.21725694  .00000246  00000-0  00000-0 0  1496
2 37392   0.0182 268.8922 0000740 141.8209 307.0392  1.00269885    14
INTELSAT 18 (IS-18)     
1 37834C 11056A   22143.00000000  .00000143  00000-0  00000-0 0  1439
2 37834   0.0209 348.5845 0001891  75.2322 356.7733  1.00270953    17
INTELSAT 18 (IS-18)     
1 37834C 11056A   22146.00000000  .00000143  00000-0  00000-0 0  1465
2 37834   0.0241 357.7456 0001741  66.8206 358.9835  1.00270606    16
INTELSAT 18 (IS-18) [PM]
1 37834C 11056A   22150.09075232  .00000143  00000-0  00000-0 0  1503
2 37834   0.0242 355.1490 0001622  68.8809  36.2222  1.00274012    17
INTELSAT 22 (IS-22)     
1 38098C 12011A   22143.00000000  .00000031  00000-0  00000-0 0  1430
2 38098   0.0140  53.3725 0002615  23.1424 236.1718  1.00271419    14
INTELSAT 22 (IS-22)     
1 38098C 12011A   22146.00000000  .00000013  00000-0  00000-0 0  1466
2 38098   0.0201  55.6570 0002387  21.0636 238.9258  1.00272151    16
INTELSAT 22 (IS-22) [PM]
1 38098C 12011A   22149.88152778  .00000031  00000-0  00000-0 0  1498
2 38098   0.0095 304.2606 0002176 138.5365 194.0374  1.00272234    12
INTELSAT 19 (IS-19)     
1 38356C 12030A   22143.00000000  .00000060  00000-0  00000-0 0  1430
2 38356   0.0000 298.2880 0003105 126.8941 341.4036  1.00272250    15
INTELSAT 19 (IS-19)     
1 38356C 12030A   22146.00000000  .00000027  00000-0  00000-0 0  1469
2 38356   0.0000 343.0674 0002983  78.1240 348.3555  1.00271058    16
INTELSAT 19 (IS-19) [PM]
1 38356C 12030A   22150.61711806  .00000021  00000-0  00000-0 0  1503
2 38356   0.0076 312.6544 0003013 111.7285 211.8780  1.00273046    18
INTELSAT 20 (IS-20)     
1 38740C 12043A   22143.00000000  .00000064  00000-0  00000-0 0  1435
2 38740   0.0151 185.8330 0001143   1.7993 121.4560  1.00269910    15
INTELSAT 20 (IS-20)     
1 38740C 12043A   22146.00000000  .00000067  00000-0  00000-0 0  1464
2 38740   0.0044 227.5078 0001085 338.9514 105.5853  1.00271131    14
INTELSAT 20 (IS-20) [PM]
1 38740C 12043A   22146.61458333 -.00003204  00000-0  00000-0 0  1464
2 38740   0.0343 136.6682 0001220  66.1148 331.1140  1.00272399    14
INTELSAT 21 (IS-21)     
1 38749C 12045A   22143.00000000 -.00000212  00000-0  00000-0 0  1432
2 38749   0.0059  42.8124 0002229  24.6475 115.1437  1.00270967    16
INTELSAT 21 (IS-21) [PM]
1 38749C 12045A   22145.91555556 -.00000241  00000-0  00000-0 0  1459
2 38749   0.0080 300.2954 0001868 121.6365  93.1230  1.00273076    16
INTELSAT 21 (IS-21)     
1 38749C 12045A   22146.00000000 -.00000195  00000-0  00000-0 0  1468
2 38749   0.0076 300.4924 0001883 121.9400 123.1061  1.00273090    12
INTELSAT 23 (IS-23)     
1 38867C 12057A   22143.00000000 -.00000187  00000-0  00000-0 0  1437
2 38867   0.0543 110.5747 0002283  81.0179 356.0151  1.00271136    15
INTELSAT 23 (IS-23)     
1 38867C 12057A   22146.00000000 -.00000196  00000-0  00000-0 0  1463
2 38867   0.0507 112.0355 0000979 120.6343 317.8968  1.00277533    18
INTELSAT 23 (IS-23) [PM]
1 38867C 12057A   22147.01921296 -.00000166  00000-0  00000-0 0  1472
2 38867   0.0541 109.8248 0002938 245.9450 202.6840  1.00271015    17
INTELSAT 30 (IS-30)     
1 40271C 14062A   22143.00000000 -.00000090  00000-0  00000-0 0  1430
2 40271   0.0052 293.5865 0001604 157.2275  54.7316  1.00270265    11
INTELSAT 30 (IS-30)     
1 40271C 14062A   22146.00000000  .00000114  00000-0  00000-0 0  1462
2 40271   0.0028 310.6316 0001371 143.2662  54.5928  1.00270558    14
INTELSAT 30 (IS-30) [PM]
1 40271C 14062A   22146.37637732  .00000108  00000-0  00000-0 0  1463
2 40271   0.0080 276.9447 0001293 150.8808 216.5302  1.00272814    13
INTELSAT 34 (IS-34)     
1 40874C 15039A   22143.00000000 -.00000195  00000-0  00000-0 0  1430
2 40874   0.0145   4.4524 0000647 145.3979  35.2483  1.00270873    13
INTELSAT 34 (IS-34)     
1 40874C 15039A   22146.00000000 -.00000195  00000-0  00000-0 0  1466
2 40874   0.0173   0.4926 0000402 170.6724  16.8975  1.00271137    19
INTELSAT 34 (IS-34) [PM]
1 40874C 15039A   22148.25028935 -.00000193  00000-0  00000-0 0  1482
2 40874   0.0112 329.7852 0000245 205.9548 104.6402  1.00273276    15
INTELSAT 31 (IS-31)     
1 41581C 16035A   22143.00000000 -.00000061  00000-0  00000-0 0  1435
2 41581   0.0127 239.9580 0002296 331.0287 294.5574  1.00270462    19
INTELSAT 31 (IS-31)     
1 41581C 16035A   22146.00000000 -.00000121  00000-0  00000-0 0  1468
2 41581   0.0088 257.2712 0002218 323.8427 287.3875  1.00270927    14
INTELSAT 31 (IS-31) [PM]
1 41581C 16035A   22146.65539352 -.00000059  00000-0  00000-0 0  1466
2 41581   0.0110 252.9489 0002102 328.5272 163.6081  1.00272504    13
INTELSAT 36 (IS-36)     
1 41747C 16053A   22143.00000000  .00000069  00000-0  00000-0 0  1436
2 41747   0.0099 341.8640 0001530  12.2406 314.9885  1.00270580    15
INTELSAT 36 (IS-36)     
1 41747C 16053A   22146.00000000  .00000064  00000-0  00000-0 0  1467
2 41747   0.0124 341.4079 0001737   2.9457 327.6911  1.00271156    18
INTELSAT 36 (IS-36) [PM]
1 41747C 16053A   22146.33819444  .00000067  00000-0  00000-0 0  1466
2 41747   0.0094 311.5496 0001768  19.5226 103.0510  1.00272437    11
